GLOBALSTAR M063         
1 26081U 00008A   25080.20745565 -.00000066  00000+0  24334-3 0  9995
2 26081  51.9986 343.2811 0004874 139.8435  23.6643 11.86167005147130
GLOBALSTAR M062         
1 26082U 00008B   25080.20550722 -.00000034  00000+0  45714-3 0  9995
2 26082  51.9880 354.5101 0006516 287.5121 227.7626 12.43461152485675
GLOBALSTAR M060         
1 26083U 00008C   25080.63480437 -.00000037  00000+0  53274-3 0  9991
2 26083  52.0026 300.8719 0002750 318.8615  75.1986 12.17658242141707
GLOBALSTAR M064         
1 26084U 00008D   25080.17535265 -.00000092  00000+0 -12027-3 0  9994
2 26084  52.0018  83.2265 0001409 243.7676 116.3012 11.88531472156638
GLOBALSTAR M065         
1 31571U 07020A   25080.56968203  .00000027  00000+0  73061-3 0  9998
2 31571  51.9878 132.9485 0010652 113.8427  32.8838 12.62001595822341
GLOBALSTAR M069         
1 31573U 07020C   25080.52227123 -.00000076  00000+0  16154-3 0  9990
2 31573  51.9931  99.8668 0000215 358.8180 167.4986 12.42142948823276
GLOBALSTAR M072         
1 31574U 07020D   25080.61293384 -.00000059  00000+0  34480-3 0  9996
2 31574  52.0138 225.1019 0001904 148.2777 293.7049 11.91776967821022
GLOBALSTAR M071         
1 31576U 07020F   25080.52232602 -.00000023  00000+0  66781-3 0  9994
2 31576  52.0041 116.4763 0000564 268.5953 239.0991 12.18250564484257
